{
  "type": "FeatureCollection",
  "features": [
    {
      "type": "Feature",
      "properties": {
        "norad_id": 57400,
        "name": "TIANMU-1 08",
        "group": "weather",
        "lat": -68.61045813279515,
        "lon": -158.070332588155,
        "alt_km": 493.80124228922523,
        "timestamp": "2025-12-17T10:52:53.992054+00:00",
        "meta_object_name": "TIANMU-1 08",
        "meta_object_id": "2023-101B",
        "meta_epoch": "2025-12-16T22:47:27.970656",
        "meta_mean_motion": 15.28115804,
        "meta_eccentricity": 0.00074031,
        "meta_inclination": 97.2866,
        "meta_ra_of_asc_node": 40.5043,
        "meta_arg_of_pericenter": 72.2992,
        "meta_mean_anomaly": 287.9055,
        "meta_ephemeris_type": 0,
        "meta_classification_type": "U",
        "meta_norad_cat_id": 57400,
        "meta_element_set_no": 999,
        "meta_rev_at_epoch": 13379,
        "meta_bstar": 0.00022163325,
        "meta_mean_motion_dot": 6.007e-05,
        "meta_mean_motion_ddot": 0,
        "tle_line1": "1 57400U 23101B   25350.94962929  .00006007  00000+0  22163-3 0  9997",
        "tle_line2": "2 57400  97.2866  40.5043 0007403  72.2992 287.9055 15.28115804133791"
      },
      "geometry": {
        "type": "Point",
        "coordinates": [
          -158.070332588155,
          -68.61045813279515
        ]
      }
    },
    {
      "type": "Feature",
      "properties": {
        "norad_id": 57401,
        "name": "TIANMU-1 09",
        "group": "weather",
        "lat": -36.873310584984495,
        "lon": 46.01212118565592,
        "alt_km": 489.1636409059829,
        "timestamp": "2025-12-17T10:52:53.992065+00:00",
        "meta_object_name": "TIANMU-1 09",
        "meta_object_id": "2023-101C",
        "meta_epoch": "2025-12-16T22:28:18.924096",
        "meta_mean_motion": 15.28147361,
        "meta_eccentricity": 0.00066561,
        "meta_inclination": 97.2823,
        "meta_ra_of_asc_node": 40.0024,
        "meta_arg_of_pericenter": 72.4784,
        "meta_mean_anomaly": 287.7183,
        "meta_ephemeris_type": 0,
        "meta_classification_type": "U",
        "meta_norad_cat_id": 57401,
        "meta_element_set_no": 999,
        "meta_rev_at_epoch": 13379,
        "meta_bstar": 0.00022326081,
        "meta_mean_motion_dot": 6.056e-05,
        "meta_mean_motion_ddot": 0,
        "tle_line1": "1 57401U 23101C   25350.93633014  .00006056  00000+0  22326-3 0  9992",
        "tle_line2": "2 57401  97.2823  40.0024 0006656  72.4784 287.7183 15.28147361133792"
      },
      "geometry": {
        "type": "Point",
        "coordinates": [
          46.01212118565592,
          -36.873310584984495
        ]
      }
    },
    {
      "type": "Feature",
      "properties": {
        "norad_id": 57402,
        "name": "TIANMU-1 10",
        "group": "weather",
        "lat": 44.63326637875838,
        "lon": -131.37608591497906,
        "alt_km": 475.20435499111954,
        "timestamp": "2025-12-17T10:52:53.992076+00:00",
        "meta_object_name": "TIANMU-1 10",
        "meta_object_id": "2023-101D",
        "meta_epoch": "2025-12-16T23:17:36.932640",
        "meta_mean_motion": 15.28139314,
        "meta_eccentricity": 0.00084108,
        "meta_inclination": 97.2904,
        "meta_ra_of_asc_node": 40.8902,
        "meta_arg_of_pericenter": 71.279,
        "meta_mean_anomaly": 288.9362,
        "meta_ephemeris_type": 0,
        "meta_classification_type": "U",
        "meta_norad_cat_id": 57402,
        "meta_element_set_no": 999,
        "meta_rev_at_epoch": 13379,
        "meta_bstar": 0.00023040843,
        "meta_mean_motion_dot": 6.253e-05,
        "meta_mean_motion_ddot": 0,
        "tle_line1": "1 57402U 23101D   25350.97056635  .00006253  00000+0  23041-3 0  9999",
        "tle_line2": "2 57402  97.2904  40.8902 0008410  71.2790 288.9362 15.28139314133791"
      },
      "geometry": {
        "type": "Point",
        "coordinates": [
          -131.37608591497906,
          44.63326637875838
        ]
      }
    },
    {
      "type": "Feature",
      "properties": {
        "norad_id": 57490,
        "name": "FENGYUN 3F",
        "group": "weather",
        "lat": 1.006695494839126,
        "lon": 59.516290273640266,
        "alt_km": 828.6340687084294,
        "timestamp": "2025-12-17T10:52:53.992086+00:00",
        "meta_object_name": "FENGYUN 3F",
        "meta_object_id": "2023-111A",
        "meta_epoch": "2025-12-17T00:43:46.438176",
        "meta_mean_motion": 14.19894686,
        "meta_eccentricity": 7.08e-05,
        "meta_inclination": 98.7079,
        "meta_ra_of_asc_node": 59.2545,
        "meta_arg_of_pericenter": 108.6853,
        "meta_mean_anomaly": 251.44,
        "meta_ephemeris_type": 0,
        "meta_classification_type": "U",
        "meta_norad_cat_id": 57490,
        "meta_element_set_no": 999,
        "meta_rev_at_epoch": 12301,
        "meta_bstar": 5.0331292e-05,
        "meta_mean_motion_dot": 6.3e-07,
        "meta_mean_motion_ddot": 0,
        "tle_line1": "1 57490U 23111A   25351.03039859  .00000063  00000+0  50331-4 0  9990",
        "tle_line2": "2 57490  98.7079  59.2545 0000708 108.6853 251.4400 14.19894686123012"
      },
      "geometry": {
        "type": "Point",
        "coordinates": [
          59.516290273640266,
          1.006695494839126
        ]
      }
    },
    {
      "type": "Feature",
      "properties": {
        "norad_id": 58584,
        "name": "ARKTIKA-M 2",
        "group": "weather",
        "lat": 57.854035560400774,
        "lon": -132.12814229671704,
        "alt_km": 34687.748416546536,
        "timestamp": "2025-12-17T10:52:53.992107+00:00",
        "meta_object_name": "ARKTIKA-M 2",
        "meta_object_id": "2023-198A",
        "meta_epoch": "2025-12-15T07:41:54.278304",
        "meta_mean_motion": 2.00603484,
        "meta_eccentricity": 0.68650912,
        "meta_inclination": 63.2249,
        "meta_ra_of_asc_node": 174.6089,
        "meta_arg_of_pericenter": 268.096,
        "meta_mean_anomaly": 18.8351,
        "meta_ephemeris_type": 0,
        "meta_classification_type": "U",
        "meta_norad_cat_id": 58584,
        "meta_element_set_no": 999,
        "meta_rev_at_epoch": 1463,
        "meta_bstar": 0,
        "meta_mean_motion_dot": 2.02e-06,
        "meta_mean_motion_ddot": 0,
        "tle_line1": "1 58584U 23198A   25349.32076711  .00000202  00000+0  00000+0 0  9995",
        "tle_line2": "2 58584  63.2249 174.6089 6865091 268.0960  18.8351  2.00603484 14636"
      },
      "geometry": {
        "type": "Point",
        "coordinates": [
          -132.12814229671704,
          57.854035560400774
        ]
      }
    },
    {
      "type": "Feature",
      "properties": {
        "norad_id": 58645,
        "name": "TIANMU-1 11",
        "group": "weather",
        "lat": -73.19782766757997,
        "lon": 165.64836611002002,
        "alt_km": 494.8987379047312,
        "timestamp": "2025-12-17T10:52:53.992131+00:00",
        "meta_object_name": "TIANMU-1 11",
        "meta_object_id": "2023-205A",
        "meta_epoch": "2025-12-17T00:18:57.100032",
        "meta_mean_motion": 15.24652888,
        "meta_eccentricity": 0.00076432,
        "meta_inclination": 97.3603,
        "meta_ra_of_asc_node": 10.5617,
        "meta_arg_of_pericenter": 292.4698,
        "meta_mean_anomaly": 67.573,
        "meta_ephemeris_type": 0,
        "meta_classification_type": "U",
        "meta_norad_cat_id": 58645,
        "meta_element_set_no": 999,
        "meta_rev_at_epoch": 10974,
        "meta_bstar": 0.00021837774,
        "meta_mean_motion_dot": 5.326e-05,
        "meta_mean_motion_ddot": 0,
        "tle_line1": "1 58645U 23205A   25351.01316088  .00005326  00000+0  21838-3 0  9993",
        "tle_line2": "2 58645  97.3603  10.5617 0007643 292.4698  67.5730 15.24652888109746"
      },
      "geometry": {
        "type": "Point",
        "coordinates": [
          165.64836611002002,
          -73.19782766757997
        ]
      }
    },
    {
      "type": "Feature",
      "properties": {
        "norad_id": 58646,
        "name": "TIANMU-1 12",
        "group": "weather",
        "lat": 73.21669808838277,
        "lon": -143.82838987060887,
        "alt_km": 488.99870550183095,
        "timestamp": "2025-12-17T10:52:53.992170+00:00",
        "meta_object_name": "TIANMU-1 12",
        "meta_object_id": "2023-205B",
        "meta_epoch": "2025-12-17T00:58:13.567584",
        "meta_mean_motion": 15.24537399,
        "meta_eccentricity": 0.00057712,
        "meta_inclination": 97.359,
        "meta_ra_of_asc_node": 10.3926,
        "meta_arg_of_pericenter": 271.7872,
        "meta_mean_anomaly": 88.2705,
        "meta_ephemeris_type": 0,
        "meta_classification_type": "U",
        "meta_norad_cat_id": 58646,
        "meta_element_set_no": 999,
        "meta_rev_at_epoch": 10973,
        "meta_bstar": 0.00021012656,
        "meta_mean_motion_dot": 5.102e-05,
        "meta_mean_motion_ddot": 0,
        "tle_line1": "1 58646U 23205B   25351.04043481  .00005102  00000+0  21013-3 0  9998",
        "tle_line2": "2 58646  97.3590  10.3926 0005771 271.7872  88.2705 15.24537399109737"
      },
      "geometry": {
        "type": "Point",
        "coordinates": [
          -143.82838987060887,
          73.21669808838277
        ]
      }
    }
  ]
}